NORAD_CAT_ID,OBJECT_NAME,OBJECT_TYPE,EPOCH,MEAN_MOTION,ECCENTRICITY,INCLINATION,RA_OF_ASC_NODE,ARG_OF_PERICENTER,MEAN_ANOMALY,BSTAR,MEAN_MOTION_DOT,MEAN_MOTION_DDOT,TLE_LINE0,TLE_LINE1,TLE_LINE2,SEMIMAJOR_AXIS,PERIOD,APOGEE,PERIGEE,DECAYED
52992.0,STARLINK-4269,PAYLOAD,2024-05-24 17:58:36,15.0884237,5.23e-05,53.2143,159.7742,127.9086,232.1953,-0.00025792,-4.39e-05,0.0,0 STARLINK-4269,1 52992U 22076G   24145.74903236 -.00004390  00000-0 -25792-3 0  9990,2 52992  53.2143 159.7742 0000523 127.9086 232.1953 15.08842370104452,6917.873,95.437,540.1,539.376,0.0
52992.0,STARLINK-4269,PAYLOAD,2024-05-25 05:06:18,15.08859034,0.0001371,53.2155,157.7027,104.7815,255.3329,0.00032453,4.883e-05,0.0,0 STARLINK-4269,1 52992U 22076G   24146.21271255  .00004883  00000-0  32453-3 0  9999,2 52992  53.2155 157.7027 0001371 104.7815 255.3329 15.08859034104521,6917.822,95.436,540.636,538.739,0.0
52992.0,STARLINK-4269,PAYLOAD,2024-05-25 09:52:28,15.08835093,0.0001395,53.2154,156.8106,93.5247,266.5905,-0.00014665,-2.621e-05,0.0,0 STARLINK-4269,1 52992U 22076G   24146.41144113 -.00002621  00000-0 -14665-3 0  9998,2 52992  53.2154 156.8106 0001395  93.5247 266.5905 15.08835093104554,6917.895,95.438,540.725,538.795,0.0
52992.0,STARLINK-4269,PAYLOAD,2024-05-26 09:43:15,15.088399,0.0001329,53.2153,152.3516,84.6431,275.4713,0.00025604,3.789e-05,0.0,0 STARLINK-4269,1 52992U 22076G   24147.40504516  .00003789  00000-0  25604-3 0  9994,2 52992  53.2153 152.3516 0001329  84.6431 275.4713 15.08839900104234,6917.881,95.438,540.665,538.826,0.0
52992.0,STARLINK-4269,PAYLOAD,2024-05-26 17:40:11,15.08841248,0.0001312,53.2164,150.8642,89.5206,270.5936,0.00032711,4.922e-05,0.0,0 STARLINK-4269,1 52992U 22076G   24147.73624521  .00004922  00000-0  32711-3 0  9996,2 52992  53.2164 150.8642 0001312  89.5206 270.5936 15.08841248104753,6917.877,95.437,540.649,538.834,0.0
52992.0,STARLINK-4269,PAYLOAD,2024-05-27 06:23:16,15.08848582,0.000139,53.2156,148.4855,83.4654,276.6497,0.0003735,5.663e-05,0.0,0 STARLINK-4269,1 52992U 22076G   24148.26616346  .00005663  00000-0  37350-3 0  9998,2 52992  53.2156 148.4855 0001390  83.4654 276.6497 15.08848582104363,6917.854,95.437,540.681,538.758,0.0
52992.0,STARLINK-4269,PAYLOAD,2024-05-27 17:30:58,15.08852845,0.000147,53.2159,146.4042,79.7753,280.3405,0.00034366,5.188e-05,0.0,0 STARLINK-4269,1 52992U 22076G   24148.72984014  .00005188  00000-0  34366-3 0  9995,2 52992  53.2159 146.4042 0001470  79.7753 280.3405 15.08852845104435,6917.841,95.437,540.723,538.689,0.0
52992.0,STARLINK-4269,PAYLOAD,2024-05-28 04:38:40,15.08846518,0.0001402,53.2158,144.3231,80.6273,279.4878,0.00015226,2.137e-05,0.0,0 STARLINK-4269,1 52992U 22076G   24149.19352163  .00002137  00000-0  15226-3 0  9996,2 52992  53.2158 144.3231 0001402  80.6273 279.4878 15.08846518104976,6917.86,95.437,540.695,538.756,0.0
52992.0,STARLINK-4269,PAYLOAD,2024-05-28 06:14:03,15.08846418,0.0001403,53.2158,144.0257,80.3506,279.7645,0.00014234,1.979e-05,0.0,0 STARLINK-4269,1 52992U 22076G   24149.25976137  .00001979  00000-0  14234-3 0  9997,2 52992  53.2158 144.0257 0001403  80.3506 279.7645 15.08846418104512,6917.861,95.437,540.696,538.755,0.0
52992.0,STARLINK-4269,PAYLOAD,2024-05-29 04:29:27,15.08842546,0.0001444,53.2164,139.862,94.521,265.5947,3.6884e-05,2.99e-06,0.0,0 STARLINK-4269,1 52992U 22076G   24150.18712036  .00000299  00000-0  36884-4 0  9997,2 52992  53.2164 139.8620 0001444  94.5210 265.5947 15.08842546105123,6917.873,95.437,540.737,538.739,0.0
52992.0,STARLINK-4269,PAYLOAD,2024-05-29 09:15:36,15.08842809,0.0001418,53.217,138.9697,95.8652,264.2502,3.8958e-05,3.32e-06,0.0,0 STARLINK-4269,1 52992U 22076G   24150.38584046  .00000332  00000-0  38958-4 0  9999,2 52992  53.2170 138.9697 0001418  95.8652 264.2502 15.08842809104684,6917.872,95.437,540.718,538.756,0.0
52992.0,STARLINK-4269,PAYLOAD,2024-05-30 05:55:37,15.08842421,0.0001431,53.2173,135.1035,97.7964,262.3191,6.8694e-05,8.06e-06,0.0,0 STARLINK-4269,1 52992U 22076G   24151.24695974  .00000806  00000-0  68694-4 0  9994,2 52992  53.2173 135.1035 0001431  97.7964 262.3191 15.08842421105284,6917.873,95.437,540.728,538.748,0.0
52992.0,STARLINK-4269,PAYLOAD,2024-05-30 23:24:52,15.08837374,0.0001484,53.2178,131.8325,98.0488,262.0672,6.5714e-05,7.58e-06,0.0,0 STARLINK-4269,1 52992U 22076G   24151.97560440  .00000758  00000-0  65714-4 0  9999,2 52992  53.2178 131.8325 0001484  98.0488 262.0672 15.08837374104929,6917.888,95.438,540.78,538.727,0.0
52992.0,STARLINK-4269,PAYLOAD,2024-05-31 04:11:01,15.08836356,0.0001477,53.2177,130.9405,98.5417,261.5742,4.8349e-05,4.82e-06,0.0,0 STARLINK-4269,1 52992U 22076G   24152.17432555  .00000482  00000-0  48349-4 0  9996,2 52992  53.2177 130.9405 0001477  98.5417 261.5742 15.08836356105423,6917.892,95.438,540.778,538.735,0.0
52992.0,STARLINK-4269,PAYLOAD,2024-05-31 21:40:16,15.08836924,0.0001468,53.2181,127.6713,92.826,267.29,5.1311e-05,5.29e-06,0.0,0 STARLINK-4269,1 52992U 22076G   24152.90296729  .00000529  00000-0  51311-4 0  9993,2 52992  53.2181 127.6713 0001468  92.8260 267.2900 15.08836924105066,6917.89,95.438,540.77,538.739,0.0
52992.0,STARLINK-4269,PAYLOAD,2024-06-01 07:12:35,15.08839622,0.000148,53.2182,125.8873,92.6738,267.4424,6.524e-05,7.5e-06,0.0,0 STARLINK-4269,1 52992U 22076G   24153.30040592  .00000750  00000-0  65240-4 0  9995,2 52992  53.2182 125.8873 0001480  92.6738 267.4424 15.08839622105595,6917.882,95.438,540.77,538.723,0.0
52992.0,STARLINK-4269,PAYLOAD,2024-06-02 07:03:21,15.08842652,0.0001418,53.2176,121.426,93.0114,267.1041,0.0001239,1.685e-05,0.0,0 STARLINK-4269,1 52992U 22076G   24154.29400421  .00001685  00000-0  12390-3 0  9990,2 52992  53.2176 121.4260 0001418  93.0114 267.1041 15.08842652105278,6917.872,95.437,540.718,538.756,0.0
52992.0,STARLINK-4269,PAYLOAD,2024-06-02 15:00:18,15.08837244,0.0001438,53.2175,119.9382,89.0716,271.0441,8.1308e-05,1.006e-05,0.0,0 STARLINK-4269,1 52992U 22076G   24154.62520973  .00001006  00000-0  81308-4 0  9995,2 52992  53.2175 119.9382 0001438  89.0716 271.0441 15.08837244105795,6917.889,95.438,540.749,538.759,0.0
52992.0,STARLINK-4269,PAYLOAD,2024-06-03 05:18:46,15.088397,0.0001476,53.2181,117.2609,91.283,268.8331,3.9153e-05,3.35e-06,0.0,0 STARLINK-4269,1 52992U 22076G   24155.22137098  .00000335  00000-0  39153-4 0  9999,2 52992  53.2181 117.2609 0001476  91.2830 268.8331 15.08839700105419,6917.881,95.438,540.767,538.725,0.0
52992.0,STARLINK-4269,PAYLOAD,2024-06-03 14:51:04,15.0884415,0.000147,53.2184,115.4771,91.6597,268.4564,8.9759e-05,1.141e-05,0.0,0 STARLINK-4269,1 52992U 22076G   24155.61880687  .00001141  00000-0  89759-4 0  9994,2 52992  53.2184 115.4771 0001470  91.6597 268.4564 15.08844150105475,6917.868,95.437,540.75,538.716,0.0
52992.0,STARLINK-4269,PAYLOAD,2024-06-04 03:34:09,15.08851025,0.0001334,53.2177,113.0976,95.6907,264.4237,0.00011475,1.539e-05,0.0,0 STARLINK-4269,1 52992U 22076G   24156.14871972  .00001539  00000-0  11475-3 0  9990,2 52992  53.2177 113.0976 0001334  95.6907 264.4237 15.08851025106020,6917.847,95.437,540.635,538.789,0.0
52992.0,STARLINK-4269,PAYLOAD,2024-06-04 14:41:51,15.08846563,0.0001218,53.2175,111.0167,98.0039,262.1091,4.3374e-05,4.03e-06,0.0,0 STARLINK-4269,1 52992U 22076G   24156.61240287  .00000403  00000-0  43374-4 0  9994,2 52992  53.2175 111.0167 0001218  98.0039 262.1091 15.08846563106093,6917.86,95.437,540.568,538.883,0.0
52992.0,STARLINK-4269,PAYLOAD,2024-06-04 21:03:24,15.08839239,0.0001528,53.2182,109.8275,95.9146,264.202,9.8121e-05,1.274e-05,0.0,0 STARLINK-4269,1 52992U 22076G   24156.87736818  .00001274  00000-0  98121-4 0  9999,2 52992  53.2182 109.8275 0001528  95.9146 264.2020 15.08839239105664,6917.883,95.438,540.805,538.691,0.0
52992.0,STARLINK-4269,PAYLOAD,2024-06-05 03:24:57,15.08840668,0.0001328,53.2175,108.6385,95.8106,264.3038,5.7971e-05,6.35e-06,0.0,0 STARLINK-4269,1 52992U 22076G   24157.14232801  .00000635  00000-0  57971-4 0  9991,2 52992  53.2175 108.6385 0001328  95.8106 264.3038 15.08840668106173,6917.878,95.438,540.662,538.825,0.0
52992.0,STARLINK-4269,PAYLOAD,2024-06-05 20:54:11,15.08839007,0.000128,53.2185,105.3682,90.4478,269.6661,2.3894e-06,-2.5e-06,0.0,0 STARLINK-4269,1 52992U 22076G   24157.87097097 -.00000250  00000-0  23894-5 0  9999,2 52992  53.2185 105.3682 0001280  90.4478 269.6661 15.08839007105813,6917.883,95.438,540.634,538.863,0.0
52992.0,STARLINK-4269,PAYLOAD,2024-06-06 03:15:44,15.08843874,0.0001306,53.2175,104.178,92.091,268.0231,3.4514e-05,2.61e-06,0.0,0 STARLINK-4269,1 52992U 22076G   24158.13592675  .00000261  00000-0  34514-4 0  9992,2 52992  53.2175 104.1780 0001306  92.0910 268.0231 15.08843874105853,6917.869,95.437,540.637,538.83,0.0
52992.0,STARLINK-4269,PAYLOAD,2024-06-08 02:57:18,15.08841617,0.00014,53.2175,95.2613,102.9912,257.1237,8.6562e-05,1.09e-05,0.0,0 STARLINK-4269,1 52992U 22076G   24160.12313106  .00001090  00000-0  86562-4 0  9995,2 52992  53.2175  95.2613 0001400 102.9912 257.1237 15.08841617106620,6917.875,95.437,540.709,538.772,0.0
52992.0,STARLINK-4269,PAYLOAD,2024-06-08 12:29:37,15.08843803,0.0001167,53.2164,93.4739,83.4464,276.6661,9.1997e-05,1.177e-05,0.0,0 STARLINK-4269,1 52992U 22076G   24160.52056904  .00001177  00000-0  91997-4 0  9993,2 52992  53.2164  93.4739 0001167  83.4464 276.6661 15.08843803106213,6917.869,95.437,540.541,538.926,0.0
52992.0,STARLINK-4269,PAYLOAD,2024-06-08 18:51:11,15.08816925,0.0001606,53.2183,92.2831,81.7307,278.3867,-5.451e-05,-1.155e-05,0.0,0 STARLINK-4269,1 52992U 22076G   24160.78555179 -.00001155  00000-0 -54510-4 0  9997,2 52992  53.2183  92.2831 0001606  81.7307 278.3867 15.08816925106727,6917.951,95.439,540.927,538.705,0.0
52992.0,STARLINK-4269,PAYLOAD,2024-06-09 02:48:06,15.08823021,0.0001256,53.2194,90.7993,90.581,269.5327,5.6518e-05,6.11e-06,0.0,0 STARLINK-4269,1 52992U 22076G   24161.11674638  .00000611  00000-0  56518-4 0  9991,2 52992  53.2194  90.7993 0001256  90.5810 269.5327 15.08823021106772,6917.932,95.439,540.666,538.928,0.0
